ONEWEB-0188             
1 48231U 21031X   25248.22412924 -.00000135  00000+0 -39845-3 0  9994
2 48231  87.9092 346.4744 0001886 101.6370 258.4971 13.14503546210706
ONEWEB-0220             
1 48232U 21031Y   25248.26377989  .00000261  00000+0  66825-3 0  9996
2 48232  87.9090 346.4050 0001969 106.5709 253.5637 13.14503191210977
ONEWEB-0165             
1 48233U 21031Z   25248.29230773 -.00000132  00000+0 -39123-3 0  9999
2 48233  87.9077 346.4411 0001824 106.6034 253.5297 13.14502410210937
ONEWEB-0199             
1 48234U 21031AA  25248.27646710  .00000171  00000+0  42681-3 0  9994
2 48234  87.9088 346.4095 0001758  94.9423 265.1908 13.14503360210837
ONEWEB-0203             
1 48235U 21031AB  25248.26694547  .00000286  00000+0  73811-3 0  9991
2 48235  87.9086 346.4131 0001534  97.4933 262.6371 13.14504844210848
ONEWEB-0197             
1 48236U 21031AC  25248.24145152 -.00004985  00000+0 -13484-1 0  9993
2 48236  87.9085 346.4166 0002287  99.3089 260.8299 13.14527937210752
ONEWEB-0194             
1 48237U 21031AD  25248.29707754 -.00000080  00000+0 -24929-3 0  9991
2 48237  87.9089 346.4188 0001726  92.4846 267.6482 13.14503634210930
ONEWEB-0193             
1 48238U 21031AE  25248.23682726 -.00000077  00000+0 -24264-3 0  9995
2 48238  87.9076 346.4338 0001766  85.9703 274.1629 13.14503634210876
ONEWEB-0191             
1 48239U 21031AF  25248.24792355  .00000088  00000+0  20410-3 0  9996
2 48239  87.9095 346.4073 0001846  98.2863 261.8476 13.14504463210736
ONEWEB-0195             
1 48240U 21031AG  25248.22491274 -.00000165  00000+0 -48040-3 0  9999
2 48240  87.9096 346.4088 0001626 112.7220 247.4082 13.14504559210717
ONEWEB-0201             
1 48241U 21031AH  25248.28927972 -.00000056  00000+0 -18447-3 0  9992
2 48241  87.9098 346.4454 0002012 107.9652 252.1697 13.14504704210955
ONEWEB-0207             
1 48242U 21031AJ  25248.26931980  .00000233  00000+0  59465-3 0  9995
2 48242  87.9088 346.4081 0002000 103.1029 257.0324 13.14502316210862
ONEWEB-0208             
1 48243U 21031AK  25248.25109044  .00000150  00000+0  37100-3 0  9993
2 48243  87.9094 346.4263 0001704 104.9260 255.2058 13.14503487210873
ONEWEB-0200             
1 48244U 21031AL  25248.29073911 -.00000054  00000+0 -17896-3 0  9996
2 48244  87.9087 346.4089 0001767 103.3647 256.7680 13.14503245210805
ONEWEB-0217             
1 48245U 21031AM  25248.23045935 -.00000283  00000+0 -79906-3 0  9990
2 48245  87.9097 346.4068 0001621 108.1771 251.9535 13.14503657210740
ONEWEB-0211             
1 48767U 21045A   25248.25773817  .00000217  00000+0  53917-3 0  9992
2 48767  87.9056 315.9823 0001562  95.0014 265.1295 13.16085067206963
