[{"OBJECT_NAME":"ONEWEB-0188","OBJECT_ID":"2021-031X","EPOCH":"2025-09-05T05:22:44.766336","MEAN_MOTION":13.14503546,"ECCENTRICITY":0.00018862,"INCLINATION":87.9092,"RA_OF_ASC_NODE":346.4744,"ARG_OF_PERICENTER":101.637,"MEAN_ANOMALY":258.4971,"EPHEMERIS_TYPE":0,"CLASSIFICATION_TYPE":"U","NORAD_CAT_ID":48231,"ELEMENT_SET_NO":999,"REV_AT_EPOCH":21070,"BSTAR":-0.00039845407,"MEAN_MOTION_DOT":-1.35e-6,"MEAN_MOTION_DDOT":0},{"OBJECT_NAME":"ONEWEB-0220","OBJECT_ID":"2021-031Y","EPOCH":"2025-09-05T06:19:50.582496","MEAN_MOTION":13.14503191,"ECCENTRICITY":0.00019699,"INCLINATION":87.909,"RA_OF_ASC_NODE":346.405,"ARG_OF_PERICENTER":106.5709,"MEAN_ANOMALY":253.5637,"EPHEMERIS_TYPE":0,"CLASSIFICATION_TYPE":"U","NORAD_CAT_ID":48232,"ELEMENT_SET_NO":999,"REV_AT_EPOCH":21097,"BSTAR":0.00066825321,"MEAN_MOTION_DOT":2.61e-6,"MEAN_MOTION_DDOT":0},{"OBJECT_NAME":"ONEWEB-0165","OBJECT_ID":"2021-031Z","EPOCH":"2025-09-05T07:00:55.387872","MEAN_MOTION":13.1450241,"ECCENTRICITY":0.00018246,"INCLINATION":87.9077,"RA_OF_ASC_NODE":346.4411,"ARG_OF_PERICENTER":106.6034,"MEAN_ANOMALY":253.5297,"EPHEMERIS_TYPE":0,"CLASSIFICATION_TYPE":"U","NORAD_CAT_ID":48233,"ELEMENT_SET_NO":999,"REV_AT_EPOCH":21093,"BSTAR":-0.00039122649,"MEAN_MOTION_DOT":-1.32e-6,"MEAN_MOTION_DDOT":0},{"OBJECT_NAME":"ONEWEB-0199","OBJECT_ID":"2021-031AA","EPOCH":"2025-09-05T06:38:06.757440","MEAN_MOTION":13.1450336,"ECCENTRICITY":0.00017584,"INCLINATION":87.9088,"RA_OF_ASC_NODE":346.4095,"ARG_OF_PERICENTER":94.9423,"MEAN_ANOMALY":265.1908,"EPHEMERIS_TYPE":0,"CLASSIFICATION_TYPE":"U","NORAD_CAT_ID":48234,"ELEMENT_SET_NO":999,"REV_AT_EPOCH":21083,"BSTAR":0.0004268147,"MEAN_MOTION_DOT":1.71e-6,"MEAN_MOTION_DDOT":0},{"OBJECT_NAME":"ONEWEB-0203","OBJECT_ID":"2021-031AB","EPOCH":"2025-09-05T06:24:24.088608","MEAN_MOTION":13.14504844,"ECCENTRICITY":0.00015347,"INCLINATION":87.9086,"RA_OF_ASC_NODE":346.4131,"ARG_OF_PERICENTER":97.4933,"MEAN_ANOMALY":262.6371,"EPHEMERIS_TYPE":0,"CLASSIFICATION_TYPE":"U","NORAD_CAT_ID":48235,"ELEMENT_SET_NO":999,"REV_AT_EPOCH":21084,"BSTAR":0.00073810526,"MEAN_MOTION_DOT":2.86e-6,"MEAN_MOTION_DDOT":0},{"OBJECT_NAME":"ONEWEB-0197","OBJECT_ID":"2021-031AC","EPOCH":"2025-09-05T05:47:41.411328","MEAN_MOTION":13.14527937,"ECCENTRICITY":0.00022873,"INCLINATION":87.9085,"RA_OF_ASC_NODE":346.4166,"ARG_OF_PERICENTER":99.3089,"MEAN_ANOMALY":260.8299,"EPHEMERIS_TYPE":0,"CLASSIFICATION_TYPE":"U","NORAD_CAT_ID":48236,"ELEMENT_SET_NO":999,"REV_AT_EPOCH":21075,"BSTAR":-0.01348352,"MEAN_MOTION_DOT":-4.985e-5,"MEAN_MOTION_DDOT":0},{"OBJECT_NAME":"ONEWEB-0194","OBJECT_ID":"2021-031AD","EPOCH":"2025-09-05T07:07:47.499456","MEAN_MOTION":13.14503634,"ECCENTRICITY":0.00017262,"INCLINATION":87.9089,"RA_OF_ASC_NODE":346.4188,"ARG_OF_PERICENTER":92.4846,"MEAN_ANOMALY":267.6482,"EPHEMERIS_TYPE":0,"CLASSIFICATION_TYPE":"U","NORAD_CAT_ID":48237,"ELEMENT_SET_NO":999,"REV_AT_EPOCH":21093,"BSTAR":-0.00024928662,"MEAN_MOTION_DOT":-8.0e-7,"MEAN_MOTION_DDOT":0},{"OBJECT_NAME":"ONEWEB-0193","OBJECT_ID":"2021-031AE","EPOCH":"2025-09-05T05:41:01.875264","MEAN_MOTION":13.14503634,"ECCENTRICITY":0.0001766,"INCLINATION":87.9076,"RA_OF_ASC_NODE":346.4338,"ARG_OF_PERICENTER":85.9703,"MEAN_ANOMALY":274.1629,"EPHEMERIS_TYPE":0,"CLASSIFICATION_TYPE":"U","NORAD_CAT_ID":48238,"ELEMENT_SET_NO":999,"REV_AT_EPOCH":21087,"BSTAR":-0.00024264303,"MEAN_MOTION_DOT":-7.7e-7,"MEAN_MOTION_DDOT":0},{"OBJECT_NAME":"ONEWEB-0191","OBJECT_ID":"2021-031AF","EPOCH":"2025-09-05T05:57:00.594720","MEAN_MOTION":13.14504463,"ECCENTRICITY":0.00018467,"INCLINATION":87.9095,"RA_OF_ASC_NODE":346.4073,"ARG_OF_PERICENTER":98.2863,"MEAN_ANOMALY":261.8476,"EPHEMERIS_TYPE":0,"CLASSIFICATION_TYPE":"U","NORAD_CAT_ID":48239,"ELEMENT_SET_NO":999,"REV_AT_EPOCH":21073,"BSTAR":0.00020409844,"MEAN_MOTION_DOT":8.8e-7,"MEAN_MOTION_DDOT":0},{"OBJECT_NAME":"ONEWEB-0195","OBJECT_ID":"2021-031AG","EPOCH":"2025-09-05T05:23:52.460736","MEAN_MOTION":13.14504559,"ECCENTRICITY":0.00016268,"INCLINATION":87.9096,"RA_OF_ASC_NODE":346.4088,"ARG_OF_PERICENTER":112.722,"MEAN_ANOMALY":247.4082,"EPHEMERIS_TYPE":0,"CLASSIFICATION_TYPE":"U","NORAD_CAT_ID":48240,"ELEMENT_SET_NO":999,"REV_AT_EPOCH":21071,"BSTAR":-0.00048039579,"MEAN_MOTION_DOT":-1.65e-6,"MEAN_MOTION_DDOT":0},{"OBJECT_NAME":"ONEWEB-0201","OBJECT_ID":"2021-031AH","EPOCH":"2025-09-05T06:56:33.767808","MEAN_MOTION":13.14504704,"ECCENTRICITY":0.0002012,"INCLINATION":87.9098,"RA_OF_ASC_NODE":346.4454,"ARG_OF_PERICENTER":107.9652,"MEAN_ANOMALY":252.1697,"EPHEMERIS_TYPE":0,"CLASSIFICATION_TYPE":"U","NORAD_CAT_ID":48241,"ELEMENT_SET_NO":999,"REV_AT_EPOCH":21095,"BSTAR":-0.00018446871,"MEAN_MOTION_DOT":-5.6e-7,"MEAN_MOTION_DDOT":0},{"OBJECT_NAME":"ONEWEB-0207","OBJECT_ID":"2021-031AJ","EPOCH":"2025-09-05T06:27:49.230720","MEAN_MOTION":13.14502316,"ECCENTRICITY":0.00020005,"INCLINATION":87.9088,"RA_OF_ASC_NODE":346.4081,"ARG_OF_PERICENTER":103.1029,"MEAN_ANOMALY":257.0324,"EPHEMERIS_TYPE":0,"CLASSIFICATION_TYPE":"U","NORAD_CAT_ID":48242,"ELEMENT_SET_NO":999,"REV_AT_EPOCH":21086,"BSTAR":0.00059464737,"MEAN_MOTION_DOT":2.33e-6,"MEAN_MOTION_DDOT":0},{"OBJECT_NAME":"ONEWEB-0208","OBJECT_ID":"2021-031AK","EPOCH":"2025-09-05T06:01:34.214016","MEAN_MOTION":13.14503487,"ECCENTRICITY":0.00017047,"INCLINATION":87.9094,"RA_OF_ASC_NODE":346.4263,"ARG_OF_PERICENTER":104.926,"MEAN_ANOMALY":255.2058,"EPHEMERIS_TYPE":0,"CLASSIFICATION_TYPE":"U","NORAD_CAT_ID":48243,"ELEMENT_SET_NO":999,"REV_AT_EPOCH":21087,"BSTAR":0.00037099694,"MEAN_MOTION_DOT":1.5e-6,"MEAN_MOTION_DDOT":0},{"OBJECT_NAME":"ONEWEB-0200","OBJECT_ID":"2021-031AL","EPOCH":"2025-09-05T06:58:39.859104","MEAN_MOTION":13.14503245,"ECCENTRICITY":0.00017671,"INCLINATION":87.9087,"RA_OF_ASC_NODE":346.4089,"ARG_OF_PERICENTER":103.3647,"MEAN_ANOMALY":256.768,"EPHEMERIS_TYPE":0,"CLASSIFICATION_TYPE":"U","NORAD_CAT_ID":48244,"ELEMENT_SET_NO":999,"REV_AT_EPOCH":21080,"BSTAR":-0.00017895558,"MEAN_MOTION_DOT":-5.4e-7,"MEAN_MOTION_DDOT":0},{"OBJECT_NAME":"ONEWEB-0217","OBJECT_ID":"2021-031AM","EPOCH":"2025-09-05T05:31:51.687840","MEAN_MOTION":13.14503657,"ECCENTRICITY":0.00016214,"INCLINATION":87.9097,"RA_OF_ASC_NODE":346.4068,"ARG_OF_PERICENTER":108.1771,"MEAN_ANOMALY":251.9535,"EPHEMERIS_TYPE":0,"CLASSIFICATION_TYPE":"U","NORAD_CAT_ID":48245,"ELEMENT_SET_NO":999,"REV_AT_EPOCH":21074,"BSTAR":-0.00079906429,"MEAN_MOTION_DOT":-2.83e-6,"MEAN_MOTION_DDOT":0},{"OBJECT_NAME":"ONEWEB-0211","OBJECT_ID":"2021-045A","EPOCH":"2025-09-05T06:11:08.577888","MEAN_MOTION":13.16085067,"ECCENTRICITY":0.00015627,"INCLINATION":87.9056,"RA_OF_ASC_NODE":315.9823,"ARG_OF_PERICENTER":95.0014,"MEAN_ANOMALY":265.1295,"EPHEMERIS_TYPE":0,"CLASSIFICATION_TYPE":"U","NORAD_CAT_ID":48767,"ELEMENT_SET_NO":999,"REV_AT_EPOCH":20696,"BSTAR":0.00053916964,"MEAN_MOTION_DOT":2.17e-6,"MEAN_MOTION_DDOT":0}]
